CENTISPACE-1 OBJECT H   
1 68357U 26060H   26084.61780387  .00000019  00000+0  33492-4 0  9997
2 68357  54.9848  16.6351 0014470 304.4277  55.5354 14.75425125   445
CENTISPACE-1 OBJECT J   
1 68358U 26060J   26084.61779005  .00000017  00000+0  33263-4 0  9997
2 68358  54.9877  16.6351 0013871 306.1411  53.8304 14.75435012   443
SUPERVIEW NEO-2 OBJECT A
1 68377U 26062A   26085.06175243  .00001462  00000+0  71720-4 0  9999
2 68377  97.4363  93.5445 0008999 273.7616  86.2590 15.19655825    21
SUPERVIEW NEO-2 OBJECT B
1 68378U 26062B   26085.45682560  .00002920  00000+0  14053-3 0  9993
2 68378  97.4340  93.9366 0008885 265.8774  94.1445 15.19540243    84
